start=new Date('2021-09-02T00:00:00.000Z').valueOf();
sats=[{"SEMIMAJOR_AXIS":"6925.365","APOAPSIS":"547.750","PERIOD":"95.592","OBJECT_TYPE":"PAYLOAD","ECCENTRICITY":"0.00007520","EPOCH":"2021-09-01T06:22:39.449568","MEAN_MOTION_DDOT":"0.0000000000000","OBJECT_NAME":"STARLINK-1400","CENTER_NAME":"EARTH","SITE":"AFETR","ELEMENT_SET_NO":"999","REV_AT_EPOCH":"7039","MEAN_MOTION":"15.06394768","TLE_LINE2":"2 45700  53.0541 245.6675 0000752  56.2261 303.8800 15.06394768 70397","ARG_OF_PERICENTER":"56.2261","CLASSIFICATION_TYPE":"U","INCLINATION":"53.0541","TIME_SYSTEM":"UTC","TLE_LINE1":"1 45700U 20035AV  21244.26573437  .00000541  00000-0  55174-4 0  9992","RCS_SIZE":"LARGE","NORAD_CAT_ID":"45700","OBJECT_ID":"2020-035AV","DECAY_DATE":null,"EPHEMERIS_TYPE":"0","MEAN_ANOMALY":"303.8800","RA_OF_ASC_NODE":"245.6675","PERIAPSIS":"546.709","FILE":"3106942","REF_FRAME":"TEME","MEAN_MOTION_DOT":"0.00000541","LAUNCH_DATE":"2020-06-04","GP_ID":"183875419","BSTAR":"0.00005517400000","MEAN_ELEMENT_THEORY":"SGP4","COUNTRY_CODE":"US"},{"TLE_LINE1":"1 45701U 20035AW  21244.49426475 -.00001058  00000-0 -52185-4 0  9992","TIME_SYSTEM":"UTC","INCLINATION":"53.0522","CLASSIFICATION_TYPE":"U","ARG_OF_PERICENTER":"52.8213","TLE_LINE2":"2 45701  53.0522 244.6439 0000404  52.8213 307.2813 15.06397361 70425","RCS_SIZE":"LARGE","ELEMENT_SET_NO":"999","REV_AT_EPOCH":"7042","CENTER_NAME":"EARTH","SITE":"AFETR","OBJECT_NAME":"STARLINK-1403","MEAN_MOTION_DDOT":"0.0000000000000","MEAN_MOTION":"15.06397361","PERIOD":"95.592","OBJECT_TYPE":"PAYLOAD","EPOCH":"2021-09-01T11:51:44.474400","ECCENTRICITY":"0.00004040","SEMIMAJOR_AXIS":"6925.357","APOAPSIS":"547.501","BSTAR":"-0.00005218500000","GP_ID":"183876157","COUNTRY_CODE":"US","MEAN_ELEMENT_THEORY":"SGP4","MEAN_MOTION_DOT":"-0.00001058","REF_FRAME":"TEME","FILE":"3106942","LAUNCH_DATE":"2020-06-04","RA_OF_ASC_NODE":"244.6439","MEAN_ANOMALY":"307.2813","PERIAPSIS":"546.942","OBJECT_ID":"2020-035AW","NORAD_CAT_ID":"45701","EPHEMERIS_TYPE":"0","DECAY_DATE":null},{"MEAN_MOTION":"15.06390945","MEAN_MOTION_DDOT":"0.0000000000000","OBJECT_NAME":"STARLINK-1405","SITE":"AFETR","CENTER_NAME":"EARTH","REV_AT_EPOCH":"7042","ELEMENT_SET_NO":"999","RCS_SIZE":"LARGE","TLE_LINE2":"2 45702  53.0532 244.7221 0000827  35.6172 324.4872 15.06390945 70426","ARG_OF_PERICENTER":"35.6172","CLASSIFICATION_TYPE":"U","INCLINATION":"53.0532","TLE_LINE1":"1 45702U 20035AX  21244.47584258  .00000730  00000-0  67890-4 0  9998","TIME_SYSTEM":"UTC","APOAPSIS":"547.814","SEMIMAJOR_AXIS":"6925.376","ECCENTRICITY":"0.00008270","EPOCH":"2021-09-01T11:25:12.798912","PERIOD":"95.593","OBJECT_TYPE":"PAYLOAD","LAUNCH_DATE":"2020-06-04","FILE":"3106942","REF_FRAME":"TEME","MEAN_MOTION_DOT":"0.00000730","MEAN_ELEMENT_THEORY":"SGP4","COUNTRY_CODE":"US","GP_ID":"183874422","BSTAR":"0.00006789000000","DECAY_DATE":null,"EPHEMERIS_TYPE":"0","NORAD_CAT_ID":"45702","OBJECT_ID":"2020-035AX","PERIAPSIS":"546.669","MEAN_ANOMALY":"324.4872","RA_OF_ASC_NODE":"244.7221"},{"APOAPSIS":"547.739","SEMIMAJOR_AXIS":"6925.324","EPOCH":"2021-09-01T09:44:20.250816","ECCENTRICITY":"0.00007940","PERIOD":"95.592","OBJECT_TYPE":"PAYLOAD","MEAN_MOTION":"15.06407984","ELEMENT_SET_NO":"999","REV_AT_EPOCH":"7041","SITE":"AFETR","CENTER_NAME":"EARTH","OBJECT_NAME":"STARLINK-1407","MEAN_MOTION_DDOT":"0.0000000000000","RCS_SIZE":"LARGE","TIME_SYSTEM":"UTC","TLE_LINE1":"1 45703U 20035AY  21244.40578994  .00000716  00000-0  66940-4 0  9991","INCLINATION":"53.0555","CLASSIFICATION_TYPE":"U","ARG_OF_PERICENTER":"69.4968","TLE_LINE2":"2 45703  53.0555 245.0328 0000794  69.4968 290.6106 15.06407984 70410","EPHEMERIS_TYPE":"0","DECAY_DATE":null,"OBJECT_ID":"2020-035AY","NORAD_CAT_ID":"45703","PERIAPSIS":"546.639","RA_OF_ASC_NODE":"245.0328","MEAN_ANOMALY":"290.6106","LAUNCH_DATE":"2020-06-04","MEAN_MOTION_DOT":"0.00000716","REF_FRAME":"TEME","FILE":"3106942","COUNTRY_CODE":"US","MEAN_ELEMENT_THEORY":"SGP4","BSTAR":"0.00006694000000","GP_ID":"183874672"},{"APOAPSIS":"547.781","SEMIMAJOR_AXIS":"6925.369","ECCENTRICITY":"0.00007900","EPOCH":"2021-09-01T12:03:40.760640","OBJECT_TYPE":"PAYLOAD","PERIOD":"95.593","MEAN_MOTION":"15.06393228","SITE":"AFETR","CENTER_NAME":"EARTH","REV_AT_EPOCH":"7001","ELEMENT_SET_NO":"999","MEAN_MOTION_DDOT":"0.0000000000000","OBJECT_NAME":"STARLINK-1409","RCS_SIZE":"LARGE","INCLINATION":"53.0543","CLASSIFICATION_TYPE":"U","TIME_SYSTEM":"UTC","TLE_LINE1":"1 45704U 20035AZ  21244.50255510  .00000848  00000-0  75803-4 0  9993","TLE_LINE2":"2 45704  53.0543 274.6011 0000790  91.5525 268.5554 15.06393228 70018","ARG_OF_PERICENTER":"91.5525","DECAY_DATE":null,"EPHEMERIS_TYPE":"0","NORAD_CAT_ID":"45704","OBJECT_ID":"2020-035AZ","PERIAPSIS":"546.687","RA_OF_ASC_NODE":"274.6011","MEAN_ANOMALY":"268.5554","LAUNCH_DATE":"2020-06-04","MEAN_MOTION_DOT":"0.00000848","FILE":"3106942","REF_FRAME":"TEME","MEAN_ELEMENT_THEORY":"SGP4","COUNTRY_CODE":"US","BSTAR":"0.00007580300000","GP_ID":"183875919"},{"OBJECT_TYPE":"PAYLOAD","PERIOD":"95.593","ECCENTRICITY":"0.00003650","EPOCH":"2021-09-01T10:59:59.446752","SEMIMAJOR_AXIS":"6925.376","APOAPSIS":"547.494","CLASSIFICATION_TYPE":"U","INCLINATION":"53.0550","TLE_LINE1":"1 45705U 20035BA  21244.45832693  .00000799  00000-0  72486-4 0  9990","TIME_SYSTEM":"UTC","TLE_LINE2":"2 45705  53.0550 274.8072 0000365  52.8604 307.2419 15.06391134 69992","ARG_OF_PERICENTER":"52.8604","RCS_SIZE":"LARGE","CENTER_NAME":"EARTH","SITE":"AFETR","REV_AT_EPOCH":"6999","ELEMENT_SET_NO":"999","MEAN_MOTION_DDOT":"0.0000000000000","OBJECT_NAME":"STARLINK-1410","MEAN_MOTION":"15.06391134","RA_OF_ASC_NODE":"274.8072","MEAN_ANOMALY":"307.2419","PERIAPSIS":"546.988","NORAD_CAT_ID":"45705","OBJECT_ID":"2020-035BA","DECAY_DATE":null,"EPHEMERIS_TYPE":"0","BSTAR":"0.00007248600000","GP_ID":"183875658","MEAN_ELEMENT_THEORY":"SGP4","COUNTRY_CODE":"US","MEAN_MOTION_DOT":"0.00000799","FILE":"3106942","REF_FRAME":"TEME","LAUNCH_DATE":"2020-06-04"},{"RA_OF_ASC_NODE":"245.1393","MEAN_ANOMALY":"302.2146","PERIAPSIS":"546.666","NORAD_CAT_ID":"45706","OBJECT_ID":"2020-035BB","DECAY_DATE":null,"EPHEMERIS_TYPE":"0","BSTAR":"0.00005849500000","GP_ID":"183874922","MEAN_ELEMENT_THEORY":"SGP4","COUNTRY_CODE":"US","MEAN_MOTION_DOT":"0.00000590","FILE":"3106942","REF_FRAME":"TEME","LAUNCH_DATE":"2020-06-04","OBJECT_TYPE":"PAYLOAD","PERIOD":"95.592","ECCENTRICITY":"0.00008070","EPOCH":"2021-09-01T09:12:29.781792","SEMIMAJOR_AXIS":"6925.359","APOAPSIS":"547.783","INCLINATION":"53.0530","CLASSIFICATION_TYPE":"U","TLE_LINE1":"1 45706U 20035BB  21244.38367803  .00000590  00000-0  58495-4 0  9992","TIME_SYSTEM":"UTC","TLE_LINE2":"2 45706  53.0530 245.1393 0000807  57.8921 302.2146 15.06396468 70401","ARG_OF_PERICENTER":"57.8921","RCS_SIZE":"LARGE","CENTER_NAME":"EARTH","SITE":"AFETR","REV_AT_EPOCH":"7040","ELEMENT_SET_NO":"999","MEAN_MOTION_DDOT":"0.0000000000000","OBJECT_NAME":"STARLINK-1411","MEAN_MOTION":"15.06396468"},{"LAUNCH_DATE":"2020-06-04","FILE":"3106942","REF_FRAME":"TEME","MEAN_MOTION_DOT":"0.00001289","MEAN_ELEMENT_THEORY":"SGP4","COUNTRY_CODE":"US","GP_ID":"183875172","BSTAR":"0.00010536000000","DECAY_DATE":null,"EPHEMERIS_TYPE":"0","NORAD_CAT_ID":"45707","OBJECT_ID":"2020-035BC","PERIAPSIS":"546.705","MEAN_ANOMALY":"300.5854","RA_OF_ASC_NODE":"244.5582","MEAN_MOTION":"15.06408931","MEAN_MOTION_DDOT":"0.0000000000000","OBJECT_NAME":"STARLINK-1412","CENTER_NAME":"EARTH","SITE":"AFETR","ELEMENT_SET_NO":"999","REV_AT_EPOCH":"7043","RCS_SIZE":"LARGE","TLE_LINE2":"2 45707  53.0534 244.5582 0000695  59.5203 300.5854 15.06408931 70435","ARG_OF_PERICENTER":"59.5203","INCLINATION":"53.0534","CLASSIFICATION_TYPE":"U","TIME_SYSTEM":"UTC","TLE_LINE1":"1 45707U 20035BC  21244.51269333  .00001289  00000-0  10536-3 0  9996","APOAPSIS":"547.667","SEMIMAJOR_AXIS":"6925.321","ECCENTRICITY":"0.00006950","EPOCH":"2021-09-01T12:18:16.703712","OBJECT_TYPE":"PAYLOAD","PERIOD":"95.592"},{"MEAN_MOTION_DOT":"-0.00000438","REF_FRAME":"TEME","FILE":"3106942","LAUNCH_DATE":"2020-06-04","BSTAR":"-0.00001052200000","GP_ID":"183875420","COUNTRY_CODE":"US","MEAN_ELEMENT_THEORY":"SGP4","OBJECT_ID":"2020-035BD","NORAD_CAT_ID":"45708","EPHEMERIS_TYPE":"0","DECAY_DATE":null,"RA_OF_ASC_NODE":"244.6771","MEAN_ANOMALY":"289.8395","PERIAPSIS":"546.424","REV_AT_EPOCH":"7002","ELEMENT_SET_NO":"999","SITE":"AFETR","CENTER_NAME":"EARTH","OBJECT_NAME":"STARLINK-1418","MEAN_MOTION_DDOT":"0.0000000000000","MEAN_MOTION":"15.06392672","TLE_LINE1":"1 45708U 20035BD  21244.48690356 -.00000438  00000-0 -10522-4 0  9999","TIME_SYSTEM":"UTC","CLASSIFICATION_TYPE":"U","INCLINATION":"53.0546","ARG_OF_PERICENTER":"70.2720","TLE_LINE2":"2 45708  53.0546 244.6771 0001172  70.2720 289.8395 15.06392672 70023","RCS_SIZE":"LARGE","SEMIMAJOR_AXIS":"6925.371","APOAPSIS":"548.048","OBJECT_TYPE":"PAYLOAD","PERIOD":"95.593","EPOCH":"2021-09-01T11:41:08.467584","ECCENTRICITY":"0.00011720"},{"REF_FRAME":"TEME","FILE":"3106942","MEAN_MOTION_DOT":"0.00000908","LAUNCH_DATE":"2020-06-04","GP_ID":"183876158","BSTAR":"0.00007981400000","COUNTRY_CODE":"US","MEAN_ELEMENT_THEORY":"SGP4","OBJECT_ID":"2020-035BE","NORAD_CAT_ID":"45709","EPHEMERIS_TYPE":"0","DECAY_DATE":null,"MEAN_ANOMALY":"329.8279","RA_OF_ASC_NODE":"244.8059","PERIAPSIS":"546.692","OBJECT_NAME":"STARLINK-1421","MEAN_MOTION_DDOT":"0.0000000000000","REV_AT_EPOCH":"7001","ELEMENT_SET_NO":"999","CENTER_NAME":"EARTH","SITE":"AFETR","MEAN_MOTION":"15.06407001","ARG_OF_PERICENTER":"30.2751","TLE_LINE2":"2 45709  53.0523 244.8059 0000722  30.2751 329.8279 15.06407001 70018","TLE_LINE1":"1 45709U 20035BE  21244.45739734  .00000908  00000-0  79814-4 0  9990","TIME_SYSTEM":"UTC","CLASSIFICATION_TYPE":"U","INCLINATION":"53.0523","RCS_SIZE":"LARGE","SEMIMAJOR_AXIS":"6925.327","APOAPSIS":"547.692","PERIOD":"95.592","OBJECT_TYPE":"PAYLOAD","EPOCH":"2021-09-01T10:58:39.130176","ECCENTRICITY":"0.00007220"}];
